[{"OBJECT_NAME":"QIANFAN-84","OBJECT_ID":"2025-046M","EPOCH":"2026-03-09T20:55:49.306080","MEAN_MOTION":13.50963389,"ECCENTRICITY":0.00140886,"INCLINATION":88.9752,"RA_OF_ASC_NODE":311.05,"ARG_OF_PERICENTER":230.8415,"MEAN_ANOMALY":129.1485,"EPHEMERIS_TYPE":0,"CLASSIFICATION_TYPE":"U","NORAD_CAT_ID":63170,"ELEMENT_SET_NO":999,"REV_AT_EPOCH":5916,"BSTAR":0.00025350452,"MEAN_MOTION_DOT":1.76e-6,"MEAN_MOTION_DDOT":0},{"OBJECT_NAME":"DELTA 1 DEB","OBJECT_ID":"1975-052CG","EPOCH":"2026-03-09T22:55:16.052160","MEAN_MOTION":12.4736356,"ECCENTRICITY":0.06265551,"INCLINATION":99.473,"RA_OF_ASC_NODE":218.5444,"ARG_OF_PERICENTER":52.9637,"MEAN_ANOMALY":64.0511,"EPHEMERIS_TYPE":0,"CLASSIFICATION_TYPE":"U","NORAD_CAT_ID":21362,"ELEMENT_SET_NO":999,"REV_AT_EPOCH":55946,"BSTAR":-0.011416821,"MEAN_MOTION_DOT":-3.429e-5,"MEAN_MOTION_DDOT":0}]
